OBJECT_NAME,OBJECT_ID,EPOCH,MEAN_MOTION,ECCENTRICITY,INCLINATION,RA_OF_ASC_NODE,ARG_OF_PERICENTER,MEAN_ANOMALY,EPHEMERIS_TYPE,CLASSIFICATION_TYPE,NORAD_CAT_ID,ELEMENT_SET_NO,REV_AT_EPOCH,BSTAR,MEAN_MOTION_DOT,MEAN_MOTION_DDOT
ALOS-2,2014-029A,2026-07-17T07:16:56.078976,14.79470616,.00015927,97.9234,295.0366,92.4001,267.7393,0,U,39766,999,65603,.1166954E-3,.82E-5,0
KAZEOSAT 2,2014-033A,2026-07-17T06:32:16.508256,14.85500651,.00074982,97.5389,36.2929,211.7578,148.3186,0,U,40010,999,65342,-.23537631E-4,-.253E-5,0
HODOYOSHI-4,2014-033B,2026-07-17T06:59:43.231776,14.88191668,.00227697,97.5456,21.6624,202.3534,157.6693,0,U,40011,999,65328,.30809622E-4,.233E-5,0
DEIMOS-2,2014-033D,2026-07-17T06:14:33.885888,14.93798090,.00011491,97.5782,71.6871,109.5249,250.6096,0,U,40013,999,64221,.90194897E-4,.902E-5,0
HODOYOSHI-3,2014-033F,2026-07-16T23:01:20.815680,14.85439205,.00313281,97.6448,359.8072,255.8220,103.9514,0,U,40015,999,65204,.63248475E-4,.496E-5,0
SPOT 7,2014-034A,2026-07-17T07:35:44.697984,14.60981417,.00015937,98.0614,260.0297,94.5499,265.5884,0,U,40053,999,64153,.14340588E-4,.25E-6,0
SKYSAT-B,2014-037D,2026-07-16T20:18:29.104416,14.88094091,.00057045,98.3854,158.5062,167.7385,192.3970,0,U,40072,999,65037,.72002736E-4,.601E-5,0
WORLDVIEW-3 (WV-3),2014-048A,2026-07-17T06:51:41.090400,14.85065993,.00014581,97.8555,272.7020,152.7669,207.3622,0,U,40115,999,64637,.45742722E-4,.337E-5,0
GAOFEN-2,2014-049A,2026-07-17T05:50:50.667072,14.80927325,.00083598,98.0095,262.4201,128.8700,231.3260,0,U,40118,999,64368,-.29201891E-4,-.279E-5,0
YAOGAN-21,2014-053A,2026-07-17T07:32:59.191008,15.26776471,.00075395,97.1453,237.2624,0.1123,0.0117,0,U,40143,999,65955,.1422827E-3,.3678E-4,0
YAOGAN-22,2014-063A,2026-07-16T22:07:09.975072,13.15531565,.00068878,100.7764,349.6935,121.5365,238.6420,0,U,40275,999,56372,.41543685E-4,-.31E-6,0
ASNARO,2014-070A,2026-07-17T06:02:19.343328,15.19397391,.0004829,97.3442,273.5578,83.2912,276.8872,0,U,40298,999,64857,.19172442E-3,.3992E-4,0
YAOGAN-24,2014-072A,2026-07-17T07:32:33.732384,14.76118768,.00147623,98.1530,335.9088,162.9578,197.2129,0,U,40310,999,62816,-.12523548E-4,-.14E-5,0
CBERS 4,2014-079A,2026-07-17T06:54:23.563008,14.35516158,.00007008,98.3514,254.1726,56.3784,303.7469,0,U,40336,999,60827,.17790876E-4,.9E-7,0
YAOGAN-26,2014-088A,2026-07-17T07:44:08.016000,15.48508388,.00016055,97.0648,197.8515,328.8917,31.2240,0,U,40362,999,64236,.33700673E-3,.17853E-3,0
SMAP,2015-003A,2026-07-17T05:36:23.079744,14.63390045,.00016138,98.1285,204.9036,94.1618,265.9769,0,U,40376,999,61201,.40492668E-4,.162E-5,0
KOMPSAT-3A,2015-014A,2026-07-17T07:09:39.047040,15.55513388,.00559842,97.6896,191.8981,68.3170,292.4032,0,U,40536,999,62649,.25565799E-3,.1864E-3,0
SENTINEL-2A,2015-028A,2026-07-17T06:49:52.190976,14.30814040,.00012816,98.5679,272.7076,95.4745,264.6584,0,U,40697,999,57803,-.52036283E-4,-.18E-5,0
GAOFEN-8,2015-030A,2026-07-17T07:18:43.665984,15.46991283,.0009951,97.6888,33.5043,88.7551,271.4837,0,U,40701,999,61610,.18243516E-3,.9125E-4,0
CARBONITE 1 (CBNT-1),2015-032D,2026-07-17T07:54:57.286944,14.83672913,.00140444,97.6518,15.1369,189.6024,170.4924,0,U,40718,999,59381,.14682635E-3,.1163E-4,0
YAOGAN-27,2015-040A,2026-07-17T06:50:09.367296,13.16071726,.00085758,100.1170,183.3640,140.5270,219.6469,0,U,40878,999,52162,-.43285235E-3,-.207E-5,0
GAOFEN-9 01,2015-047A,2026-07-17T07:00:27.656064,14.82937293,.00283112,97.6264,232.6175,43.8870,316.4586,0,U,40894,999,58465,.6041063E-4,.442E-5,0
YAOGAN-28,2015-064A,2026-07-17T07:45:58.317696,15.27775321,.0012048,97.3115,335.9844,86.5985,273.6632,0,U,41026,999,59528,.12804631E-3,.3407E-4,0
YAOGAN-29,2015-069A,2026-07-17T08:03:33.151104,14.83107652,.00005858,98.0014,227.0148,9.4715,350.6509,0,U,41038,999,57509,.13666604E-4,.57E-6,0
KENT RIDGE 1,2015-077B,2026-07-17T05:16:20.998272,15.23290017,.0008278,14.9805,42.6050,303.2914,56.6615,0,U,41167,999,58568,.62908046E-4,.2298E-4,0
GAOFEN-4,2015-083A,2026-07-17T06:55:52.458240,1.00271624,.00042725,0.4332,83.7597,125.7715,295.2431,0,U,41194,999,3883,0,-.345E-5,0
JASON-3,2016-002A,2026-07-17T07:03:23.175936,12.87628745,.00081608,66.0416,62.5396,270.7288,89.2795,0,U,41240,999,49112,.12269215E-3,-.31E-6,0
SENTINEL-3A,2016-011A,2026-07-17T07:15:15.967296,14.26740128,.00013416,98.6236,265.2512,89.4511,270.6824,0,U,41335,999,54235,.35385881E-4,.42E-6,0
ZIYUAN 3-02 (ZY 3-02),2016-033A,2026-07-17T05:57:47.413152,15.21446310,.00143107,97.3825,273.4450,177.7858,182.3444,0,U,41556,999,56255,.12506027E-3,.2747E-4,0
CARTOSAT-2C,2016-040A,2026-07-17T05:26:00.271392,15.19275184,.0009398,97.4465,257.7885,38.9459,321.2451,0,U,41599,999,55827,.15028512E-3,.3104E-4,0
