ALOS-2                  
1 39766U 14029A   26198.30342684  .00000820  00000+0  11670-3 0  9990
2 39766  97.9234 295.0366 0001592  92.4001 267.7393 14.79470616656033
KAZEOSAT 2              
1 40010U 14033A   26198.27241329 -.00000253  00000+0 -23538-4 0  9998
2 40010  97.5389  36.2929 0007498 211.7578 148.3186 14.85500651653424
HODOYOSHI-4             
1 40011U 14033B   26198.29147259  .00000233  00000+0  30810-4 0  9995
2 40011  97.5456  21.6624 0022769 202.3534 157.6693 14.88191668653283
DEIMOS-2                
1 40013U 14033D   26198.26011442  .00000902  00000+0  90195-4 0  9993
2 40013  97.5782  71.6871 0001149 109.5249 250.6096 14.93798090642216
HODOYOSHI-3             
1 40015U 14033F   26197.95926870  .00000496  00000+0  63248-4 0  9997
2 40015  97.6448 359.8072 0031328 255.8220 103.9514 14.85439205652046
SPOT 7                  
1 40053U 14034A   26198.31648956  .00000025  00000+0  14341-4 0  9995
2 40053  98.0614 260.0297 0001593  94.5499 265.5884 14.60981417641534
SKYSAT-B                
1 40072U 14037D   26197.84617019  .00000601  00000+0  72003-4 0  9991
2 40072  98.3854 158.5062 0005704 167.7385 192.3970 14.88094091650378
WORLDVIEW-3 (WV-3)      
1 40115U 14048A   26198.28589225  .00000337  00000+0  45743-4 0  9994
2 40115  97.8555 272.7020 0001458 152.7669 207.3622 14.85065993646374
GAOFEN-2                
1 40118U 14049A   26198.24364198 -.00000279  00000+0 -29202-4 0  9993
2 40118  98.0095 262.4201 0008359 128.8700 231.3260 14.80927325643680
YAOGAN-21               
1 40143U 14053A   26198.31457397  .00003678  00000+0  14228-3 0  9993
2 40143  97.1453 237.2624 0007539   0.1123   0.0117 15.26776471659555
YAOGAN-22               
1 40275U 14063A   26197.92164323 -.00000031  00000+0  41544-4 0  9993
2 40275 100.7764 349.6935 0006887 121.5365 238.6420 13.15531565563729
ASNARO                  
1 40298U 14070A   26198.25161277  .00003992  00000+0  19172-3 0  9997
2 40298  97.3442 273.5578 0004829  83.2912 276.8872 15.19397391648577
YAOGAN-24               
1 40310U 14072A   26198.31427931 -.00000140  00000+0 -12524-4 0  9992
2 40310  98.1530 335.9088 0014762 162.9578 197.2129 14.76118768628163
CBERS 4                 
1 40336U 14079A   26198.28777272  .00000009  00000+0  17791-4 0  9992
2 40336  98.3514 254.1726 0000700  56.3784 303.7469 14.35516158608279
YAOGAN-26               
1 40362U 14088A   26198.32231500  .00017853  00000+0  33701-3 0  9998
2 40362  97.0648 197.8515 0001605 328.8917  31.2240 15.48508388642360
SMAP                    
1 40376U 15003A   26198.23360046  .00000162  00000+0  40493-4 0  9991
2 40376  98.1285 204.9036 0001613  94.1618 265.9769 14.63390045612018
KOMPSAT-3A              
1 40536U 15014A   26198.29836860  .00018640  00000+0  25566-3 0  9992
2 40536  97.6896 191.8981 0055984  68.3170 292.4032 15.55513388626491
SENTINEL-2A             
1 40697U 15028A   26198.28463184 -.00000180  00000+0 -52036-4 0  9994
2 40697  98.5679 272.7076 0001281  95.4745 264.6584 14.30814040578032
GAOFEN-8                
1 40701U 15030A   26198.30467206  .00009125  00000+0  18244-3 0  9993
2 40701  97.6888  33.5043 0009951  88.7551 271.4837 15.46991283616100
CARBONITE 1 (CBNT-1)    
1 40718U 15032D   26198.32982971  .00001163  00000+0  14683-3 0  9993
2 40718  97.6518  15.1369 0014044 189.6024 170.4924 14.83672913593813
YAOGAN-27               
1 40878U 15040A   26198.28483064 -.00000207  00000+0 -43285-3 0  9993
2 40878 100.1170 183.3640 0008575 140.5270 219.6469 13.16071726521625
GAOFEN-9 01             
1 40894U 15047A   26198.29198676  .00000442  00000+0  60411-4 0  9991
2 40894  97.6264 232.6175 0028311  43.8870 316.4586 14.82937293584651
YAOGAN-28               
1 41026U 15064A   26198.32359164  .00003407  00000+0  12805-3 0  9990
2 41026  97.3115 335.9844 0012048  86.5985 273.6632 15.27775321595281
YAOGAN-29               
1 41038U 15069A   26198.33580036  .00000057  00000+0  13667-4 0  9999
2 41038  98.0014 227.0148 0000585   9.4715 350.6509 14.83107652575099
KENT RIDGE 1            
1 41167U 15077B   26198.21968748  .00002298  00000+0  62908-4 0  9999
2 41167  14.9805  42.6050 0008278 303.2914  56.6615 15.23290017585683
GAOFEN-4                
1 41194U 15083A   26198.28880160 -.00000345  00000+0  00000+0 0  9996
2 41194   0.4332  83.7597 0004272 125.7715 295.2431  1.00271624 38836
JASON-3                 
1 41240U 16002A   26198.29401824 -.00000031  00000+0  12269-3 0  9993
2 41240  66.0416  62.5396 0008160 270.7288  89.2795 12.87628745491123
SENTINEL-3A             
1 41335U 16011A   26198.30226814  .00000042  00000+0  35386-4 0  9991
2 41335  98.6236 265.2512 0001341  89.4511 270.6824 14.26740128542355
ZIYUAN 3-02 (ZY 3-02)   
1 41556U 16033A   26198.24846543  .00002747  00000+0  12506-3 0  9992
2 41556  97.3825 273.4450 0014310 177.7858 182.3444 15.21446310562550
CARTOSAT-2C             
1 41599U 16040A   26198.22639203  .00003104  00000+0  15029-3 0  9999
2 41599  97.4465 257.7885 0009398  38.9459 321.2451 15.19275184558272
